[{"OBJECT_NAME":"STARLINK-5602","OBJECT_ID":"2023-028C","EPOCH":"2026-03-09T20:58:36.464160","MEAN_MOTION":14.98330331,"ECCENTRICITY":0.00030743,"INCLINATION":69.9994,"RA_OF_ASC_NODE":244.1559,"ARG_OF_PERICENTER":267.2991,"MEAN_ANOMALY":92.7816,"EPHEMERIS_TYPE":0,"CLASSIFICATION_TYPE":"U","NORAD_CAT_ID":55743,"ELEMENT_SET_NO":999,"REV_AT_EPOCH":16606,"BSTAR":8.849681e-6,"MEAN_MOTION_DOT":1.3e-7,"MEAN_MOTION_DDOT":0},{"OBJECT_NAME":"SHIYAN-24C 03","OBJECT_ID":"2023-206C","EPOCH":"2026-03-09T21:23:43.281888","MEAN_MOTION":14.97896938,"ECCENTRICITY":0.0002411,"INCLINATION":97.3969,"RA_OF_ASC_NODE":41.7507,"ARG_OF_PERICENTER":66.6237,"MEAN_ANOMALY":293.524,"EPHEMERIS_TYPE":0,"CLASSIFICATION_TYPE":"U","NORAD_CAT_ID":58652,"ELEMENT_SET_NO":999,"REV_AT_EPOCH":12043,"BSTAR":0.00011928,"MEAN_MOTION_DOT":1.35e-5,"MEAN_MOTION_DDOT":0}]
